start=new Date('2021-08-24T00:00:00.000Z').valueOf();
sats=[{"INCLINATION":"53.0546","EPOCH":"2021-08-23T21:44:00.855744","SEMIMAJOR_AXIS":"6925.371","ELEMENT_SET_NO":"999","DECAY_DATE":null,"MEAN_MOTION":"15.06392523","TIME_SYSTEM":"UTC","RCS_SIZE":"MEDIUM","PERIOD":"95.593","PERIAPSIS":"545.688","SITE":"AFETR","REF_FRAME":"TEME","TLE_LINE2":"2 47867  53.0546 148.1769 0002236  85.4496 274.6748 15.06392523 26273","ECCENTRICITY":"0.00022360","REV_AT_EPOCH":"2627","MEAN_ELEMENT_THEORY":"SGP4","ARG_OF_PERICENTER":"85.4496","EPHEMERIS_TYPE":"0","BSTAR":"-0.00006197800000","APOAPSIS":"548.785","NORAD_CAT_ID":"47867","OBJECT_ID":"2021-021H","CLASSIFICATION_TYPE":"U","OBJECT_NAME":"STARLINK-2321","RA_OF_ASC_NODE":"148.1769","GP_ID":"183330695","MEAN_MOTION_DOT":"-0.00001205","OBJECT_TYPE":"PAYLOAD","LAUNCH_DATE":"2021-03-14","TLE_LINE1":"1 47867U 21021H   21235.90556546 -.00001205  00000-0 -61978-4 0  9996","MEAN_ANOMALY":"274.6748","CENTER_NAME":"EARTH","FILE":"3102124","MEAN_MOTION_DDOT":"0.0000000000000","COUNTRY_CODE":"US"},{"OBJECT_ID":"2021-021J","CLASSIFICATION_TYPE":"U","OBJECT_NAME":"STARLINK-2323","RA_OF_ASC_NODE":"130.4243","GP_ID":"183330946","MEAN_MOTION_DOT":"0.00001748","OBJECT_TYPE":"PAYLOAD","LAUNCH_DATE":"2021-03-14","TLE_LINE1":"1 47868U 21021J   21235.94536615  .00001748  00000-0  16886-4 0  9994","MEAN_ANOMALY":"349.8507","CENTER_NAME":"EARTH","FILE":"3102124","MEAN_MOTION_DDOT":"0.0000000000000","COUNTRY_CODE":"US","INCLINATION":"53.0483","EPOCH":"2021-08-23T22:41:19.635360","SEMIMAJOR_AXIS":"6727.847","ELEMENT_SET_NO":"999","MEAN_MOTION":"15.73216983","DECAY_DATE":null,"TIME_SYSTEM":"UTC","RCS_SIZE":"LARGE","PERIOD":"91.532","PERIAPSIS":"347.055","SITE":"AFETR","REF_FRAME":"TEME","TLE_LINE2":"2 47868  53.0483 130.4243 0003949  10.2590 349.8507 15.73216983 26578","ECCENTRICITY":"0.00039490","REV_AT_EPOCH":"2657","ARG_OF_PERICENTER":"10.2590","MEAN_ELEMENT_THEORY":"SGP4","EPHEMERIS_TYPE":"0","BSTAR":"0.00001688600000","APOAPSIS":"352.369","NORAD_CAT_ID":"47868"},{"NORAD_CAT_ID":"47869","APOAPSIS":"548.724","BSTAR":"0.00005804200000","EPHEMERIS_TYPE":"0","ARG_OF_PERICENTER":"81.0826","MEAN_ELEMENT_THEORY":"SGP4","REV_AT_EPOCH":"2642","ECCENTRICITY":"0.00021880","TLE_LINE2":"2 47869  53.0559 148.1946 0002188  81.0826 279.0411 15.06401692 26422","REF_FRAME":"TEME","SITE":"AFETR","PERIAPSIS":"545.693","PERIOD":"95.592","RCS_SIZE":"LARGE","TIME_SYSTEM":"UTC","MEAN_MOTION":"15.06401692","DECAY_DATE":null,"ELEMENT_SET_NO":"999","SEMIMAJOR_AXIS":"6925.343","EPOCH":"2021-08-23T21:38:41.543808","INCLINATION":"53.0559","COUNTRY_CODE":"US","MEAN_MOTION_DDOT":"0.0000000000000","FILE":"3102124","CENTER_NAME":"EARTH","MEAN_ANOMALY":"279.0411","TLE_LINE1":"1 47869U 21021K   21235.90186972  .00000583  00000-0  58042-4 0  9994","LAUNCH_DATE":"2021-03-14","OBJECT_TYPE":"PAYLOAD","MEAN_MOTION_DOT":"0.00000583","GP_ID":"183329694","RA_OF_ASC_NODE":"148.1946","OBJECT_NAME":"STARLINK-2324","CLASSIFICATION_TYPE":"U","OBJECT_ID":"2021-021K"},{"EPHEMERIS_TYPE":"0","ARG_OF_PERICENTER":"42.3306","MEAN_ELEMENT_THEORY":"SGP4","APOAPSIS":"548.323","BSTAR":"-0.00007197900000","NORAD_CAT_ID":"47870","REF_FRAME":"TEME","TLE_LINE2":"2 47870  53.0560 176.1294 0001568  42.3306 317.7803 15.06392436 25763","ECCENTRICITY":"0.00015680","REV_AT_EPOCH":"2576","PERIOD":"95.593","RCS_SIZE":"LARGE","PERIAPSIS":"546.151","SITE":"AFETR","INCLINATION":"53.0560","SEMIMAJOR_AXIS":"6925.372","EPOCH":"2021-08-23T05:57:12.574944","MEAN_MOTION":"15.06392436","DECAY_DATE":null,"ELEMENT_SET_NO":"999","TIME_SYSTEM":"UTC","CENTER_NAME":"EARTH","MEAN_MOTION_DDOT":"0.0000000000000","FILE":"3101910","COUNTRY_CODE":"US","LAUNCH_DATE":"2021-03-14","OBJECT_TYPE":"PAYLOAD","TLE_LINE1":"1 47870U 21021L   21235.24806221 -.00001353  00000-0 -71979-4 0  9991","MEAN_ANOMALY":"317.7803","OBJECT_NAME":"STARLINK-2326","RA_OF_ASC_NODE":"176.1294","GP_ID":"183303502","MEAN_MOTION_DOT":"-0.00001353","OBJECT_ID":"2021-021L","CLASSIFICATION_TYPE":"U"},{"APOAPSIS":"548.728","BSTAR":"0.00003915400000","EPHEMERIS_TYPE":"0","MEAN_ELEMENT_THEORY":"SGP4","ARG_OF_PERICENTER":"73.9953","NORAD_CAT_ID":"47871","TLE_LINE2":"2 47871  53.0560 148.2112 0002154  73.9953 286.1273 15.06392503 26310","REF_FRAME":"TEME","REV_AT_EPOCH":"2631","ECCENTRICITY":"0.00021540","PERIOD":"95.593","RCS_SIZE":"LARGE","SITE":"AFETR","PERIAPSIS":"545.745","SEMIMAJOR_AXIS":"6925.372","EPOCH":"2021-08-23T21:33:23.354208","INCLINATION":"53.0560","TIME_SYSTEM":"UTC","MEAN_MOTION":"15.06392503","DECAY_DATE":null,"ELEMENT_SET_NO":"999","CENTER_NAME":"EARTH","COUNTRY_CODE":"US","MEAN_MOTION_DDOT":"0.0000000000000","FILE":"3102124","TLE_LINE1":"1 47871U 21021M   21235.89818697  .00000301  00000-0  39154-4 0  9992","LAUNCH_DATE":"2021-03-14","OBJECT_TYPE":"PAYLOAD","MEAN_ANOMALY":"286.1273","RA_OF_ASC_NODE":"148.2112","OBJECT_NAME":"STARLINK-2327","MEAN_MOTION_DOT":"0.00000301","GP_ID":"183331196","OBJECT_ID":"2021-021M","CLASSIFICATION_TYPE":"U"},{"EPHEMERIS_TYPE":"0","ARG_OF_PERICENTER":"7.6251","MEAN_ELEMENT_THEORY":"SGP4","APOAPSIS":"352.391","BSTAR":"0.00006802600000","NORAD_CAT_ID":"47872","REF_FRAME":"TEME","TLE_LINE2":"2 47872  53.0478 130.4252 0003951   7.6251 352.4827 15.73209748 26570","ECCENTRICITY":"0.00039510","REV_AT_EPOCH":"2657","PERIOD":"91.533","RCS_SIZE":"LARGE","PERIAPSIS":"347.074","SITE":"AFETR","INCLINATION":"53.0478","SEMIMAJOR_AXIS":"6727.867","EPOCH":"2021-08-23T22:41:01.462848","DECAY_DATE":null,"MEAN_MOTION":"15.73209748","ELEMENT_SET_NO":"999","TIME_SYSTEM":"UTC","CENTER_NAME":"EARTH","MEAN_MOTION_DDOT":"0.0000000000000","FILE":"3102124","COUNTRY_CODE":"US","LAUNCH_DATE":"2021-03-14","OBJECT_TYPE":"PAYLOAD","TLE_LINE1":"1 47872U 21021N   21235.94515582  .00008941  00000-0  68026-4 0  9994","MEAN_ANOMALY":"352.4827","OBJECT_NAME":"STARLINK-2328","RA_OF_ASC_NODE":"130.4252","GP_ID":"183331447","MEAN_MOTION_DOT":"0.00008941","OBJECT_ID":"2021-021N","CLASSIFICATION_TYPE":"U"},{"DECAY_DATE":null,"MEAN_MOTION":"15.06395711","ELEMENT_SET_NO":"999","TIME_SYSTEM":"UTC","INCLINATION":"53.0456","SEMIMAJOR_AXIS":"6925.362","EPOCH":"2021-08-23T22:42:23.717376","PERIAPSIS":"545.594","SITE":"AFETR","PERIOD":"95.592","RCS_SIZE":"LARGE","ECCENTRICITY":"0.00023570","REV_AT_EPOCH":"2631","REF_FRAME":"TEME","TLE_LINE2":"2 47873  53.0456 148.0614 0002357  83.2498 276.8759 15.06395711 26313","NORAD_CAT_ID":"47873","EPHEMERIS_TYPE":"0","MEAN_ELEMENT_THEORY":"SGP4","ARG_OF_PERICENTER":"83.2498","APOAPSIS":"548.859","BSTAR":"0.00006807000000","CLASSIFICATION_TYPE":"U","OBJECT_ID":"2021-021P","GP_ID":"183330195","MEAN_MOTION_DOT":"0.00000732","OBJECT_NAME":"STARLINK-2329","RA_OF_ASC_NODE":"148.0614","MEAN_ANOMALY":"276.8759","LAUNCH_DATE":"2021-03-14","OBJECT_TYPE":"PAYLOAD","TLE_LINE1":"1 47873U 21021P   21235.94610784  .00000732  00000-0  68070-4 0  9994","MEAN_MOTION_DDOT":"0.0000000000000","FILE":"3102124","COUNTRY_CODE":"US","CENTER_NAME":"EARTH"},{"CLASSIFICATION_TYPE":"U","OBJECT_ID":"2021-021Q","MEAN_MOTION_DOT":"0.00027608","GP_ID":"183330445","RA_OF_ASC_NODE":"130.4277","OBJECT_NAME":"STARLINK-2330","MEAN_ANOMALY":"344.7674","TLE_LINE1":"1 47874U 21021Q   21235.94526808  .00027608  00000-0  20003-3 0  9992","LAUNCH_DATE":"2021-03-14","OBJECT_TYPE":"PAYLOAD","COUNTRY_CODE":"US","MEAN_MOTION_DDOT":"0.0000000000000","FILE":"3102124","CENTER_NAME":"EARTH","TIME_SYSTEM":"UTC","DECAY_DATE":null,"MEAN_MOTION":"15.73242530","ELEMENT_SET_NO":"999","SEMIMAJOR_AXIS":"6727.774","EPOCH":"2021-08-23T22:41:11.162112","INCLINATION":"53.0478","SITE":"AFETR","PERIAPSIS":"346.959","PERIOD":"91.531","RCS_SIZE":"LARGE","REV_AT_EPOCH":"2657","ECCENTRICITY":"0.00039830","TLE_LINE2":"2 47874  53.0478 130.4277 0003983  15.3464 344.7674 15.73242530 26576","REF_FRAME":"TEME","NORAD_CAT_ID":"47874","APOAPSIS":"352.319","BSTAR":"0.00020003000000","EPHEMERIS_TYPE":"0","MEAN_ELEMENT_THEORY":"SGP4","ARG_OF_PERICENTER":"15.3464"},{"SITE":"AFETR","PERIAPSIS":"545.665","RCS_SIZE":"LARGE","PERIOD":"95.593","TIME_SYSTEM":"UTC","ELEMENT_SET_NO":"999","DECAY_DATE":null,"MEAN_MOTION":"15.06393602","EPOCH":"2021-08-23T22:30:27.158112","SEMIMAJOR_AXIS":"6925.368","INCLINATION":"53.0539","NORAD_CAT_ID":"47875","BSTAR":"0.00001689500000","APOAPSIS":"548.802","MEAN_ELEMENT_THEORY":"SGP4","ARG_OF_PERICENTER":"71.4516","EPHEMERIS_TYPE":"0","REV_AT_EPOCH":"2623","ECCENTRICITY":"0.00022650","TLE_LINE2":"2 47875  53.0539 158.0377 0002265  71.4516 288.6719 15.06393602 26237","REF_FRAME":"TEME","MEAN_MOTION_DOT":"-0.00000030","GP_ID":"183330696","RA_OF_ASC_NODE":"158.0377","OBJECT_NAME":"STARLINK-2331","CLASSIFICATION_TYPE":"U","OBJECT_ID":"2021-021R","COUNTRY_CODE":"US","FILE":"3102124","MEAN_MOTION_DDOT":"0.0000000000000","CENTER_NAME":"EARTH","MEAN_ANOMALY":"288.6719","TLE_LINE1":"1 47875U 21021R   21235.93781433 -.00000030  00000-0  16895-4 0  9995","OBJECT_TYPE":"PAYLOAD","LAUNCH_DATE":"2021-03-14"},{"FILE":"3102124","MEAN_MOTION_DDOT":"0.0000000000000","COUNTRY_CODE":"US","CENTER_NAME":"EARTH","MEAN_ANOMALY":"286.5971","OBJECT_TYPE":"PAYLOAD","LAUNCH_DATE":"2021-03-14","TLE_LINE1":"1 47876U 21021S   21235.92675991 -.00001214  00000-0 -62621-4 0  9990","GP_ID":"183330947","MEAN_MOTION_DOT":"-0.00001214","OBJECT_NAME":"STARLINK-2332","RA_OF_ASC_NODE":"158.0814","CLASSIFICATION_TYPE":"U","OBJECT_ID":"2021-021S","NORAD_CAT_ID":"47876","ARG_OF_PERICENTER":"73.5264","MEAN_ELEMENT_THEORY":"SGP4","EPHEMERIS_TYPE":"0","BSTAR":"-0.00006262100000","APOAPSIS":"548.777","ECCENTRICITY":"0.00022360","REV_AT_EPOCH":"2618","REF_FRAME":"TEME","TLE_LINE2":"2 47876  53.0559 158.0814 0002236  73.5264 286.5971 15.06395149 26186","PERIAPSIS":"545.680","SITE":"AFETR","RCS_SIZE":"LARGE","PERIOD":"95.592","ELEMENT_SET_NO":"999","DECAY_DATE":null,"MEAN_MOTION":"15.06395149","TIME_SYSTEM":"UTC","INCLINATION":"53.0559","EPOCH":"2021-08-23T22:14:32.056224","SEMIMAJOR_AXIS":"6925.363"}];
